{"fetched_at":"2026-07-16T17:46:00.127Z","source":"https://celestrak.org/NORAD/elements/gp.php?GROUP=globalstar&FORMAT=JSON","constellation":"globalstar","records":[{"OBJECT_NAME":"GLOBALSTAR M080","OBJECT_ID":"2011-080B","EPOCH":"2026-07-16T07:03:51.580800","CLASSIFICATION_TYPE":"U","MEAN_MOTION":12.62257491,"ECCENTRICITY":0.00002908,"INCLINATION":52.0068,"RA_OF_ASC_NODE":290.4004,"ARG_OF_PERICENTER":81.1357,"MEAN_ANOMALY":313.3057,"EPHEMERIS_TYPE":0,"NORAD_CAT_ID":38041,"ELEMENT_SET_NO":999,"REV_AT_EPOCH":67256,"BSTAR":0.00014066304,"MEAN_MOTION_DOT":-7.9e-7,"MEAN_MOTION_DDOT":0},{"OBJECT_NAME":"GLOBALSTAR M082","OBJECT_ID":"2011-080C","EPOCH":"2026-07-16T03:38:13.830144","CLASSIFICATION_TYPE":"U","MEAN_MOTION":12.62264282,"ECCENTRICITY":0.00001894,"INCLINATION":52.0061,"RA_OF_ASC_NODE":246.3389,"ARG_OF_PERICENTER":83.9753,"MEAN_ANOMALY":311.219,"EPHEMERIS_TYPE":0,"NORAD_CAT_ID":38042,"ELEMENT_SET_NO":999,"REV_AT_EPOCH":67325,"BSTAR":0.00015136212,"MEAN_MOTION_DOT":-7.7e-7,"MEAN_MOTION_DDOT":0},{"OBJECT_NAME":"GLOBALSTAR M092","OBJECT_ID":"2011-080D","EPOCH":"2026-07-15T20:05:11.430240","CLASSIFICATION_TYPE":"U","MEAN_MOTION":12.62267811,"ECCENTRICITY":0.00007791,"INCLINATION":52.0105,"RA_OF_ASC_NODE":337.6936,"ARG_OF_PERICENTER":103.6458,"MEAN_ANOMALY":60.5815,"EPHEMERIS_TYPE":0,"NORAD_CAT_ID":38043,"ELEMENT_SET_NO":999,"REV_AT_EPOCH":67166,"BSTAR":0.000088256051,"MEAN_MOTION_DOT":-8.8e-7,"MEAN_MOTION_DDOT":0},{"OBJECT_NAME":"GLOBALSTAR M090","OBJECT_ID":"2011-080E","EPOCH":"2026-07-15T07:36:29.637216","CLASSIFICATION_TYPE":"U","MEAN_MOTION":12.62269578,"ECCENTRICITY":0.00004273,"INCLINATION":52.0106,"RA_OF_ASC_NODE":242.844,"ARG_OF_PERICENTER":91.1185,"MEAN_ANOMALY":348.7415,"EPHEMERIS_TYPE":0,"NORAD_CAT_ID":38044,"ELEMENT_SET_NO":999,"REV_AT_EPOCH":67326,"BSTAR":0.00028459492,"MEAN_MOTION_DOT":-5.3e-7,"MEAN_MOTION_DDOT":0},{"OBJECT_NAME":"GLOBALSTAR M086","OBJECT_ID":"2011-080F","EPOCH":"2026-07-16T02:47:39.882912","CLASSIFICATION_TYPE":"U","MEAN_MOTION":12.62287791,"ECCENTRICITY":0.00014972,"INCLINATION":51.9877,"RA_OF_ASC_NODE":240.2921,"ARG_OF_PERICENTER":113.1498,"MEAN_ANOMALY":264.9646,"EPHEMERIS_TYPE":0,"NORAD_CAT_ID":38045,"ELEMENT_SET_NO":999,"REV_AT_EPOCH":67331,"BSTAR":0.000070587221,"MEAN_MOTION_DOT":-9.1e-7,"MEAN_MOTION_DDOT":0},{"OBJECT_NAME":"GLOBALSTAR M097","OBJECT_ID":"2013-005A","EPOCH":"2026-07-16T01:33:41.779296","CLASSIFICATION_TYPE":"U","MEAN_MOTION":12.62271364,"ECCENTRICITY":0.00004604,"INCLINATION":52.0027,"RA_OF_ASC_NODE":155.4281,"ARG_OF_PERICENTER":40.928,"MEAN_ANOMALY":319.1621,"EPHEMERIS_TYPE":0,"NORAD_CAT_ID":39072,"ELEMENT_SET_NO":999,"REV_AT_EPOCH":62055,"BSTAR":-0.00012859116,"MEAN_MOTION_DOT":-0.00000127,"MEAN_MOTION_DDOT":0},{"OBJECT_NAME":"GLOBALSTAR M093","OBJECT_ID":"2013-005B","EPOCH":"2026-07-16T06:37:14.024064","CLASSIFICATION_TYPE":"U","MEAN_MOTION":12.6226632,"ECCENTRICITY":0.00006818,"INCLINATION":52.0089,"RA_OF_ASC_NODE":148.1445,"ARG_OF_PERICENTER":45.9668,"MEAN_ANOMALY":314.1255,"EPHEMERIS_TYPE":0,"NORAD_CAT_ID":39073,"ELEMENT_SET_NO":999,"REV_AT_EPOCH":62053,"BSTAR":-0.000054394758,"MEAN_MOTION_DOT":-0.00000114,"MEAN_MOTION_DDOT":0},{"OBJECT_NAME":"GLOBALSTAR M094","OBJECT_ID":"2013-005C","EPOCH":"2026-07-16T00:54:57.049920","CLASSIFICATION_TYPE":"U","MEAN_MOTION":12.62264172,"ECCENTRICITY":0.00010186,"INCLINATION":51.997,"RA_OF_ASC_NODE":62.9567,"ARG_OF_PERICENTER":64.0389,"MEAN_ANOMALY":296.0582,"EPHEMERIS_TYPE":0,"NORAD_CAT_ID":39074,"ELEMENT_SET_NO":999,"REV_AT_EPOCH":62211,"BSTAR":0.000091638464,"MEAN_MOTION_DOT":-8.7e-7,"MEAN_MOTION_DDOT":0},{"OBJECT_NAME":"GLOBALSTAR M096","OBJECT_ID":"2013-005D","EPOCH":"2026-07-16T03:08:27.239712","CLASSIFICATION_TYPE":"U","MEAN_MOTION":12.62265718,"ECCENTRICITY":0.00007648,"INCLINATION":52.0071,"RA_OF_ASC_NODE":111.4982,"ARG_OF_PERICENTER":44.1269,"MEAN_ANOMALY":315.9659,"EPHEMERIS_TYPE":0,"NORAD_CAT_ID":39075,"ELEMENT_SET_NO":999,"REV_AT_EPOCH":62104,"BSTAR":0.000053761588,"MEAN_MOTION_DOT":-9.4e-7,"MEAN_MOTION_DDOT":0},{"OBJECT_NAME":"GLOBALSTAR M078","OBJECT_ID":"2013-005E","EPOCH":"2026-07-16T04:23:47.204736","CLASSIFICATION_TYPE":"U","MEAN_MOTION":12.62260137,"ECCENTRICITY":0.0000854,"INCLINATION":51.9845,"RA_OF_ASC_NODE":195.3095,"ARG_OF_PERICENTER":340.9626,"MEAN_ANOMALY":19.1209,"EPHEMERIS_TYPE":0,"NORAD_CAT_ID":39076,"ELEMENT_SET_NO":999,"REV_AT_EPOCH":61967,"BSTAR":-0.00010858678,"MEAN_MOTION_DOT":-0.00000123,"MEAN_MOTION_DDOT":0},{"OBJECT_NAME":"GLOBALSTAR M095","OBJECT_ID":"2013-005F","EPOCH":"2026-07-16T03:08:10.653504","CLASSIFICATION_TYPE":"U","MEAN_MOTION":12.62264131,"ECCENTRICITY":0.00004742,"INCLINATION":52.0053,"RA_OF_ASC_NODE":193.114,"ARG_OF_PERICENTER":14.2111,"MEAN_ANOMALY":345.8769,"EPHEMERIS_TYPE":0,"NORAD_CAT_ID":39077,"ELEMENT_SET_NO":999,"REV_AT_EPOCH":61952,"BSTAR":-0.00010617235,"MEAN_MOTION_DOT":-0.00000123,"MEAN_MOTION_DDOT":0},{"OBJECT_NAME":"GLOBALSTAR M087","OBJECT_ID":"2022-064A","EPOCH":"2026-07-15T16:02:54.277728","CLASSIFICATION_TYPE":"U","MEAN_MOTION":12.62269258,"ECCENTRICITY":0.00009182,"INCLINATION":52.0013,"RA_OF_ASC_NODE":335.7423,"ARG_OF_PERICENTER":85.2007,"MEAN_ANOMALY":274.8964,"EPHEMERIS_TYPE":0,"NORAD_CAT_ID":52888,"ELEMENT_SET_NO":999,"REV_AT_EPOCH":19473,"BSTAR":0.000004333312,"MEAN_MOTION_DOT":-0.00000103,"MEAN_MOTION_DDOT":0}]}
